[{"OBJECT_NAME":"STARLINK-35901","OBJECT_ID":"2025-294P","EPOCH":"2026-03-09T22:10:45.302016","MEAN_MOTION":15.27583945,"ECCENTRICITY":0.00014275,"INCLINATION":43.0016,"RA_OF_ASC_NODE":36.8681,"ARG_OF_PERICENTER":251.9076,"MEAN_ANOMALY":108.162,"EPHEMERIS_TYPE":0,"CLASSIFICATION_TYPE":"U","NORAD_CAT_ID":67043,"ELEMENT_SET_NO":999,"REV_AT_EPOCH":1483,"BSTAR":0.0015173573,"MEAN_MOTION_DOT":0.00041734,"MEAN_MOTION_DDOT":0},{"OBJECT_NAME":"CZ-6A DEB","OBJECT_ID":"2024-140AAN","EPOCH":"2026-03-09T15:08:07.195776","MEAN_MOTION":15.20547394,"ECCENTRICITY":0.0064261,"INCLINATION":89.3669,"RA_OF_ASC_NODE":306.3092,"ARG_OF_PERICENTER":93.6352,"MEAN_ANOMALY":267.2246,"EPHEMERIS_TYPE":0,"CLASSIFICATION_TYPE":"U","NORAD_CAT_ID":61480,"ELEMENT_SET_NO":999,"REV_AT_EPOCH":8198,"BSTAR":0.0033609,"MEAN_MOTION_DOT":0.00078405,"MEAN_MOTION_DDOT":0}]
